VRSS-1
1 38782U 12052A   17283.48115919  .00000165  00000-0  29238-4 0  9997
2 38782  97.8757   0.2738 0023693  89.8287 270.5641 14.78872059271486

VRSS-2
1 42954U 17060A   17283.71215257  .00000854  00000-0  13144-3 0  9992
2 42954  98.0227 357.1834 0017834 281.2598  78.6574 14.75964164   210
